{
  "norad_id": 65589,
  "name": "COSMOS 2595 (MOZHAETS 6)",
  "history": [
    {
      "epoch": "2026-03-31T00:34:49.730880Z",
      "apogee_km": 19156.125688476808,
      "perigee_km": 18818.486276934018,
      "latitude_deg": 1.5777468361283562e-05,
      "longitude_deg": 120.50710100894132,
      "height_km": 18888.745783871273,
      "semi_major_axis_km": 25365.442982705412,
      "eccentricity": 0.0066555,
      "inclination_deg": 64.6827,
      "raan_deg": 317.6035,
      "arg_perigee_deg": 305.7527,
      "mean_anomaly_deg": 53.6883,
      "mean_motion_rev_day": 2.14901321
    }
  ]
}