COSMOS 2595 (MOZHAETS 6)
1 65589U 25206A   26090.02418670 -.00000035  00000+0  00000+0 0  9990
2 65589  64.6827 317.6035 0066555 305.7527  53.6883  2.14901321  4278
